STARLINK-36834          
1 67959U 26037AD  26081.16668981 -.01891472  00000+0 -31090-1 0  9993
2 67959  42.9998 122.5907 0001382 262.5048  41.9461 15.55027102  5206
STARLINK-36841          
1 67960U 26037AE  26081.16668981 -.01898315  00000+0 -30095-1 0  9992
2 67960  42.9996 122.5459 0001328 263.3876  59.0999 15.56008180  5208
STARLINK-36912          
1 67961U 26038A   26081.16668981 -.00932520  00000+0 -18335-1 0  9993
2 67961  97.2851  91.9964 0001215  92.9026 297.9626 15.49688186  5202
STARLINK-36881          
1 67962U 26038B   26081.16668981 -.01565734  00000+0 -30840-1 0  9999
2 67962  97.2848  92.0019 0001251  89.1201 314.3905 15.50157307  5207
STARLINK-36357          
1 67963U 26038C   26081.16668981  .00008286  00000+0  15401-3 0  9999
2 67963  97.2850  91.9629 0001169  76.9762 241.2448 15.49160124  5209
STARLINK-36349          
1 67964U 26038D   26081.16668981  .00006921  00000+0  12893-3 0  9996
2 67964  97.2850  91.9594 0001000  87.9501 223.1017 15.49161795  5204
STARLINK-36806          
1 67965U 26038E   26081.16668981 -.02314010  00000+0 -44986-1 0  9998
2 67965  97.2853  92.0130 0001712  80.0965 357.1184 15.51300216  5203
STARLINK-36820          
1 67966U 26038F   26081.16668981 -.02418929  00000+0 -46612-1 0  9991
2 67966  97.2853  92.0178 0001800  78.2585  11.2622 15.51724432  5206
STARLINK-36819          
1 67967U 26038G   26081.00002315  .00109712  00000+0  19964-2 0  9992
2 67967  97.2856  91.6924 0001416  75.8892 150.6178 15.49111095  5184
STARLINK-36812          
1 67968U 26038H   26081.16668981 -.02271355  00000+0 -42824-1 0  9994
2 67968  97.2853  92.0273 0001814  72.0042  36.0785 15.52078404  5206
STARLINK-36709          
1 67969U 26038J   26081.16668981 -.02929892  00000+0 -55598-1 0  9993
2 67969  97.2856  92.0333 0002406  89.3649  28.7566 15.52265524  5205
STARLINK-36319          
1 67970U 26038K   26081.16668981 -.00001194  00000+0 -20302-4 0  9997
2 67970  97.2847  91.9874 0000887 128.0380 247.4898 15.49182921  5178
STARLINK-36710          
1 67971U 26038L   26081.16668981 -.02654158  00000+0 -48502-1 0  9993
2 67971  97.2852  92.0405 0002168  73.3062  70.2054 15.52912085  5206
STARLINK-36894          
1 67972U 26038M   26081.16668981 -.02306653  00000+0 -41931-1 0  9997
2 67972  97.2854  92.0485 0001831  69.1561  86.3002 15.53144372  5208
STARLINK-36900          
1 67973U 26038N   26081.16668981  .00004222  00000+0  79361-4 0  9992
2 67973  97.2854  91.9188 0001041  90.9211 122.4702 15.49147169  5205
STARLINK-36901          
1 67974U 26038P   26081.16668981 -.02307441  00000+0 -41804-1 0  9994
2 67974  97.2854  92.0516 0001877  66.9703  95.9435 15.53237451  5205
