[{"OBJECT_NAME":"STARLINK-36834","OBJECT_ID":"2026-037AD","EPOCH":"2026-03-22T04:00:01.999584","MEAN_MOTION":15.55027102,"ECCENTRICITY":0.00013821,"INCLINATION":42.9998,"RA_OF_ASC_NODE":122.5907,"ARG_OF_PERICENTER":262.5048,"MEAN_ANOMALY":41.9461,"EPHEMERIS_TYPE":0,"CLASSIFICATION_TYPE":"U","NORAD_CAT_ID":67959,"ELEMENT_SET_NO":999,"REV_AT_EPOCH":520,"BSTAR":-0.03108981,"MEAN_MOTION_DOT":-0.01891472,"MEAN_MOTION_DDOT":0},{"OBJECT_NAME":"STARLINK-36841","OBJECT_ID":"2026-037AE","EPOCH":"2026-03-22T04:00:01.999584","MEAN_MOTION":15.5600818,"ECCENTRICITY":0.00013285,"INCLINATION":42.9996,"RA_OF_ASC_NODE":122.5459,"ARG_OF_PERICENTER":263.3876,"MEAN_ANOMALY":59.0999,"EPHEMERIS_TYPE":0,"CLASSIFICATION_TYPE":"U","NORAD_CAT_ID":67960,"ELEMENT_SET_NO":999,"REV_AT_EPOCH":520,"BSTAR":-0.030094623,"MEAN_MOTION_DOT":-0.01898315,"MEAN_MOTION_DDOT":0},{"OBJECT_NAME":"STARLINK-36912","OBJECT_ID":"2026-038A","EPOCH":"2026-03-22T04:00:01.999584","MEAN_MOTION":15.49688186,"ECCENTRICITY":0.0001215,"INCLINATION":97.2851,"RA_OF_ASC_NODE":91.9964,"ARG_OF_PERICENTER":92.9026,"MEAN_ANOMALY":297.9626,"EPHEMERIS_TYPE":0,"CLASSIFICATION_TYPE":"U","NORAD_CAT_ID":67961,"ELEMENT_SET_NO":999,"REV_AT_EPOCH":520,"BSTAR":-0.01833501,"MEAN_MOTION_DOT":-0.0093252,"MEAN_MOTION_DDOT":0},{"OBJECT_NAME":"STARLINK-36881","OBJECT_ID":"2026-038B","EPOCH":"2026-03-22T04:00:01.999584","MEAN_MOTION":15.50157307,"ECCENTRICITY":0.00012511,"INCLINATION":97.2848,"RA_OF_ASC_NODE":92.0019,"ARG_OF_PERICENTER":89.1201,"MEAN_ANOMALY":314.3905,"EPHEMERIS_TYPE":0,"CLASSIFICATION_TYPE":"U","NORAD_CAT_ID":67962,"ELEMENT_SET_NO":999,"REV_AT_EPOCH":520,"BSTAR":-0.030840231,"MEAN_MOTION_DOT":-0.01565734,"MEAN_MOTION_DDOT":0},{"OBJECT_NAME":"STARLINK-36357","OBJECT_ID":"2026-038C","EPOCH":"2026-03-22T04:00:01.999584","MEAN_MOTION":15.49160124,"ECCENTRICITY":0.00011695,"INCLINATION":97.285,"RA_OF_ASC_NODE":91.9629,"ARG_OF_PERICENTER":76.9762,"MEAN_ANOMALY":241.2448,"EPHEMERIS_TYPE":0,"CLASSIFICATION_TYPE":"U","NORAD_CAT_ID":67963,"ELEMENT_SET_NO":999,"REV_AT_EPOCH":520,"BSTAR":0.00015400652,"MEAN_MOTION_DOT":8.286e-5,"MEAN_MOTION_DDOT":0},{"OBJECT_NAME":"STARLINK-36349","OBJECT_ID":"2026-038D","EPOCH":"2026-03-22T04:00:01.999584","MEAN_MOTION":15.49161795,"ECCENTRICITY":0.00010004,"INCLINATION":97.285,"RA_OF_ASC_NODE":91.9594,"ARG_OF_PERICENTER":87.9501,"MEAN_ANOMALY":223.1017,"EPHEMERIS_TYPE":0,"CLASSIFICATION_TYPE":"U","NORAD_CAT_ID":67964,"ELEMENT_SET_NO":999,"REV_AT_EPOCH":520,"BSTAR":0.00012892977,"MEAN_MOTION_DOT":6.921e-5,"MEAN_MOTION_DDOT":0},{"OBJECT_NAME":"STARLINK-36806","OBJECT_ID":"2026-038E","EPOCH":"2026-03-22T04:00:01.999584","MEAN_MOTION":15.51300216,"ECCENTRICITY":0.00017121,"INCLINATION":97.2853,"RA_OF_ASC_NODE":92.013,"ARG_OF_PERICENTER":80.0965,"MEAN_ANOMALY":357.1184,"EPHEMERIS_TYPE":0,"CLASSIFICATION_TYPE":"U","NORAD_CAT_ID":67965,"ELEMENT_SET_NO":999,"REV_AT_EPOCH":520,"BSTAR":-0.044986269,"MEAN_MOTION_DOT":-0.0231401,"MEAN_MOTION_DDOT":0},{"OBJECT_NAME":"STARLINK-36820","OBJECT_ID":"2026-038F","EPOCH":"2026-03-22T04:00:01.999584","MEAN_MOTION":15.51724432,"ECCENTRICITY":0.00018007,"INCLINATION":97.2853,"RA_OF_ASC_NODE":92.0178,"ARG_OF_PERICENTER":78.2585,"MEAN_ANOMALY":11.2622,"EPHEMERIS_TYPE":0,"CLASSIFICATION_TYPE":"U","NORAD_CAT_ID":67966,"ELEMENT_SET_NO":999,"REV_AT_EPOCH":520,"BSTAR":-0.046611904,"MEAN_MOTION_DOT":-0.02418929,"MEAN_MOTION_DDOT":0},{"OBJECT_NAME":"STARLINK-36819","OBJECT_ID":"2026-038G","EPOCH":"2026-03-22T00:00:02.000160","MEAN_MOTION":15.49111095,"ECCENTRICITY":0.0001416,"INCLINATION":97.2856,"RA_OF_ASC_NODE":91.6924,"ARG_OF_PERICENTER":75.8892,"MEAN_ANOMALY":150.6178,"EPHEMERIS_TYPE":0,"CLASSIFICATION_TYPE":"U","NORAD_CAT_ID":67967,"ELEMENT_SET_NO":999,"REV_AT_EPOCH":518,"BSTAR":0.0019963557,"MEAN_MOTION_DOT":0.00109712,"MEAN_MOTION_DDOT":0},{"OBJECT_NAME":"STARLINK-36812","OBJECT_ID":"2026-038H","EPOCH":"2026-03-22T04:00:01.999584","MEAN_MOTION":15.52078404,"ECCENTRICITY":0.00018144,"INCLINATION":97.2853,"RA_OF_ASC_NODE":92.0273,"ARG_OF_PERICENTER":72.0042,"MEAN_ANOMALY":36.0785,"EPHEMERIS_TYPE":0,"CLASSIFICATION_TYPE":"U","NORAD_CAT_ID":67968,"ELEMENT_SET_NO":999,"REV_AT_EPOCH":520,"BSTAR":-0.042824439,"MEAN_MOTION_DOT":-0.02271355,"MEAN_MOTION_DDOT":0},{"OBJECT_NAME":"STARLINK-36709","OBJECT_ID":"2026-038J","EPOCH":"2026-03-22T04:00:01.999584","MEAN_MOTION":15.52265524,"ECCENTRICITY":0.00024062,"INCLINATION":97.2856,"RA_OF_ASC_NODE":92.0333,"ARG_OF_PERICENTER":89.3649,"MEAN_ANOMALY":28.7566,"EPHEMERIS_TYPE":0,"CLASSIFICATION_TYPE":"U","NORAD_CAT_ID":67969,"ELEMENT_SET_NO":999,"REV_AT_EPOCH":520,"BSTAR":-0.055597566,"MEAN_MOTION_DOT":-0.02929892,"MEAN_MOTION_DDOT":0},{"OBJECT_NAME":"STARLINK-36319","OBJECT_ID":"2026-038K","EPOCH":"2026-03-22T04:00:01.999584","MEAN_MOTION":15.49182921,"ECCENTRICITY":8.879e-5,"INCLINATION":97.2847,"RA_OF_ASC_NODE":91.9874,"ARG_OF_PERICENTER":128.038,"MEAN_ANOMALY":247.4898,"EPHEMERIS_TYPE":0,"CLASSIFICATION_TYPE":"U","NORAD_CAT_ID":67970,"ELEMENT_SET_NO":999,"REV_AT_EPOCH":517,"BSTAR":-2.0301958e-5,"MEAN_MOTION_DOT":-1.194e-5,"MEAN_MOTION_DDOT":0},{"OBJECT_NAME":"STARLINK-36710","OBJECT_ID":"2026-038L","EPOCH":"2026-03-22T04:00:01.999584","MEAN_MOTION":15.52912085,"ECCENTRICITY":0.00021687,"INCLINATION":97.2852,"RA_OF_ASC_NODE":92.0405,"ARG_OF_PERICENTER":73.3062,"MEAN_ANOMALY":70.2054,"EPHEMERIS_TYPE":0,"CLASSIFICATION_TYPE":"U","NORAD_CAT_ID":67971,"ELEMENT_SET_NO":999,"REV_AT_EPOCH":520,"BSTAR":-0.048502112,"MEAN_MOTION_DOT":-0.02654158,"MEAN_MOTION_DDOT":0},{"OBJECT_NAME":"STARLINK-36894","OBJECT_ID":"2026-038M","EPOCH":"2026-03-22T04:00:01.999584","MEAN_MOTION":15.53144372,"ECCENTRICITY":0.00018319,"INCLINATION":97.2854,"RA_OF_ASC_NODE":92.0485,"ARG_OF_PERICENTER":69.1561,"MEAN_ANOMALY":86.3002,"EPHEMERIS_TYPE":0,"CLASSIFICATION_TYPE":"U","NORAD_CAT_ID":67972,"ELEMENT_SET_NO":999,"REV_AT_EPOCH":520,"BSTAR":-0.041930519,"MEAN_MOTION_DOT":-0.02306653,"MEAN_MOTION_DDOT":0},{"OBJECT_NAME":"STARLINK-36900","OBJECT_ID":"2026-038N","EPOCH":"2026-03-22T04:00:01.999584","MEAN_MOTION":15.49147169,"ECCENTRICITY":0.00010418,"INCLINATION":97.2854,"RA_OF_ASC_NODE":91.9188,"ARG_OF_PERICENTER":90.9211,"MEAN_ANOMALY":122.4702,"EPHEMERIS_TYPE":0,"CLASSIFICATION_TYPE":"U","NORAD_CAT_ID":67973,"ELEMENT_SET_NO":999,"REV_AT_EPOCH":520,"BSTAR":7.9360551e-5,"MEAN_MOTION_DOT":4.222e-5,"MEAN_MOTION_DDOT":0},{"OBJECT_NAME":"STARLINK-36901","OBJECT_ID":"2026-038P","EPOCH":"2026-03-22T04:00:01.999584","MEAN_MOTION":15.53237451,"ECCENTRICITY":0.00018773,"INCLINATION":97.2854,"RA_OF_ASC_NODE":92.0516,"ARG_OF_PERICENTER":66.9703,"MEAN_ANOMALY":95.9435,"EPHEMERIS_TYPE":0,"CLASSIFICATION_TYPE":"U","NORAD_CAT_ID":67974,"ELEMENT_SET_NO":999,"REV_AT_EPOCH":520,"BSTAR":-0.041804145,"MEAN_MOTION_DOT":-0.02307441,"MEAN_MOTION_DDOT":0}]
